392P/LINEAR,e,4.9320,24.8870,71.8787,6.140890,0.0647675,0.68312762,62.6938,11/25.0/2022,2000,g 14.5,4.0
# From MPEC 2021-BE3
393P/Spacewatch-Hill,e,16.7876,36.3945,328.7736,4.792022,0.0939563,0.12061070,105.4427,11/25.0/2022,2000,g 11.0,4.0
# From MPEC 2020-KB7
394P/PANSTARRS,e,8.5295,98.1257,54.4666,4.330438,0.1093721,0.36742301,119.3696,11/25.0/2022,2000,g 16.0,2.4
# From MPEC 2022-WD2
395P/Catalina-NEAT,e,3.3001,222.9236,90.9575,6.666481,0.0572610,0.39001488,18.6816,11/25.0/2022,2000,g 10.0,4.0
# From MPEC 2020-KB7
396P/,e,5.4368,136.6536,8.4243,6.807068,0.0554963,0.41573990,65.7897,11/25.0/2022,2000,g 12.0,4.0
# From MPEC 2022-OB6
397P/Lemmon,e,10.9298,8.1947,14.5155,3.829778,0.1315054,0.40529715,116.8042,11/25.0/2022,2000,g 12.0,4.0
# From MPEC 2021-L04
398P/Boattini,e,11.0164,127.4441,320.2027,3.126748,0.1782645,0.58298635,124.4505,11/25.0/2022,2000,g 15.5,4.0
# From MPEC 2022-M88
399P/PANSTARRS,e,13.3210,207.1320,214.3431,3.791783,0.1334870,0.44724302,73.5838,11/25.0/2022,2000,g 14.0,4.0
# From MPEC 2022-ED3
400P/PANSTARRS,e,10.9302,176.3914,238.8215,3.561471,0.1466426,0.40952692,95.7092,11/25.0/2022,2000,g 15.5,2.8
# From MPEC 2022-K19
401P/McNaught,e,12.8026,359.8787,309.4257,5.776627,0.0709893,0.57960284,76.9657,11/25.0/2022,2000,g 12.5,4.0
# From MPEC 2022-WD2
402P/LINEAR,e,30.8453,123.0924,326.7462,7.023176,0.0529546,0.43929745,18.2859,11/25.0/2022,2000,g  8.0,4.0
# From MPEC 2021-J28
403P/Catalina,e,12.3214,163.8113,277.6368,5.428410,0.0779283,0.50385115,62.3019,11/25.0/2022,2000,g 12.0,4.0
# From MPEC 2022-WD2
404P/Bressi,e,9.7523,260.2206,168.4396,4.761158,0.0948714,0.13167791,327.9526,11/25.0/2022,2000,g 10.0,4.0
# From MPEC 2021-L04
405P/Lemmon,e,9.3656,3.3142,112.1917,3.606309,0.1439162,0.68926311,100.8411,11/25.0/2022,2000,g 17.5,4.0
# From MPEC 2021-F20
406P/Gibbs,e,1.2132,11.4868,352.4243,3.576682,0.1457081,0.54203326,116.5791,11/25.0/2022,2000,g 17.0,4.0
# From MPEC 2021-F20
407P/PANSTARRS-Fuls,e,4.8744,80.4320,93.4919,3.475424,0.1521221,0.38042162,156.7009,11/25.0/2022,2000,g 14.0,4.0
# From MPEC 2022-WD2
408P/Novichonok-Gerke,e,19.3570,189.4416,226.4689,4.743231,0.0954097,0.26895147,4.8542,11/25.0/2022,2000,g 11.0,4.0
# From MPEC 2022-ED3
409P/LONEOS-Hill,e,17.1204,143.6665,15.1006,6.039463,0.0664059,0.70963717,44.2258,11/25.0/2022,2000,g 14.0,4.0
# From MPEC 2022-M21
410P/NEAT-LINEAR,e,9.3925,139.9776,313.0999,6.640537,0.0575969,0.51109203,29.9120,11/25.0/2022,2000,g 12.5,4.0
# From MPEC 2021-J28
411P/Christensen,e,12.3819,77.6548,46.6109,5.813459,0.0703157,0.58084830,47.0897,11/25.0/2022,2000,g 13.5,4.0
# From MPEC 2021-F20
412P/WISE,e,8.9314,0.8446,155.9443,3.110067,0.1797006,0.47920739,129.3847,11/25.0/2022,2000,g 17.0,4.0
# From MPEC 2022-OB6
413P/Larson,e,15.9818,38.9806,186.2866,3.715970,0.1375928,0.42326546,67.7490,11/25.0/2022,2000,g 14.0,4.0
# From MPEC 2021-BE3
414P/STEREO,e,23.3927,257.7961,210.7051,2.793509,0.2110955,0.81171704,141.1549,11/25.0/2022,2000,g 19.0,4.0
# From MPEC 2022-J42
415P/Tenagra,e,31.7919,160.2916,346.0557,4.112749,0.1181696,0.19466199,76.6834,11/25.0/2022,2000,g 12.0,4.0
# From MPEC 2021-L04
416P/Scotti,e,3.3612,355.8065,134.4319,4.010270,0.1227280,0.45435931,79.4896,11/25.0/2022,2000,g 15.5,4.0
# From MPEC 2021-W31
417P/NEOWISE,e,8.1226,110.9656,129.5957,3.344616,0.1611330,0.55690538,93.6217,11/25.0/2022,2000,g 16.5,4.0
# From MPEC 2022-TA0
418P/LINEAR,e,5.7915,277.5848,307.2863,5.089415,0.0858425,0.66496583,34.6215,11/25.0/2022,2000,g 13.0,4.0
# From MPEC 2022-ST7
419P/PANSTARRS,e,2.8030,40.3887,187.5699,3.521153,0.1491684,0.27749228,58.6734,11/25.0/2022,2000,g 12.5,4.0
# From MPEC 2022-OB6
420P/Hill,e,14.5033,173.9490,156.9912,5.540112,0.0755834,0.49684225,14.1230,11/25.0/2022,2000,g 11.5,4.0
# From MPEC 2021-W31
421P/McNaught,e,10.0776,55.3418,259.8654,5.076149,0.0861792,0.67531126,57.5928,11/25.0/2022,2000,g 14.0,4.0
# From MPEC 2022-WD2
422P/Christensen,e,39.5750,36.0236,305.0750,6.309239,0.0621926,0.50797992,19.6312,11/25.0/2022,2000,g 11.0,4.0
# From MPEC 2022-A21
423P/Lemmon,e,8.3462,33.2968,80.2945,6.169215,0.0643219,0.12149885,27.8235,11/25.0/2022,2000,g  8.0,4.0
# From MPEC 2022-CN4
424P/LaSagra,e,8.6850,51.1702,312.5093,4.415891,0.1062127,0.69129074,41.3542,11/25.0/2022,2000,g 17.0,4.0
# From MPEC 2022-OB6
425P/Kowalski,e,16.4204,210.0783,200.7928,6.336265,0.0617951,0.54379567,26.5943,11/25.0/2022,2000,g 12.0,4.0
# From MPEC 2022-P82
426P/PANSTARRS,e,17.7678,280.5092,118.9744,3.188002,0.1731515,0.16150989,309.3796,11/25.0/2022,2000,g 13.5,4.0
# From MPEC 2022-J42
428P/Gibbs,e,8.5130,299.3405,36.8508,3.485323,0.1514745,0.51936867,84.7276,11/25.0/2022,2000,g 15.0,4.0
# From MPEC 2022-H04
429P/LINEAR-Hill,e,7.5212,322.0749,75.5640,3.551936,0.1472334,0.49139706,48.1161,11/25.0/2022,2000,g 15.5,4.0
# From MPEC 2022-L66
430P/Scotti,e,4.4753,54.6730,94.4705,3.105721,0.1800779,0.49954362,64.4359,11/25.0/2022,2000,g 16.5,4.0
# From MPEC 2022-ED3
431P/Scotti,e,22.3922,202.8434,199.8838,3.473350,0.1522584,0.47776245,43.3300,11/25.0/2022,2000,g 14.0,4.0
# From MPEC 2021-U31
432P/PANSTARRS,e,10.0691,239.1421,105.2512,3.035461,0.1863662,0.24189000,84.1743,11/25.0/2022,2000,g 17.0,4.0
# From MPEC 2022-OB6
434P/Tenagra,e,6.3384,288.9668,128.1133,4.129891,0.1174346,0.27458649,46.3728,11/25.0/2022,2000,g 13.0,4.0
# From MPEC 2021-W31
435P/PANSTARRS,e,18.8807,98.5503,244.1829,3.018810,0.1879102,0.31860369,91.2330,11/25.0/2022,2000,g 17.0,4.0
# From MPEC 2022-M88
436P/Garradd,e,20.2085,87.1887,282.6165,5.930190,0.0682498,0.66982049,23.9881,11/25.0/2022,2000,g 14.5,4.0
# From MPEC 2021-Y10
437P/PANSTARRS,e,3.6892,245.8652,206.7361,4.560550,0.1011995,0.25443401,9.9638,11/25.0/2022,2000,g 13.0,4.0
# From MPEC 2021-W47
438P/Christensen,e,8.2850,260.1461,58.9945,3.848267,0.1305588,0.41545950,125.8287,11/25.0/2022,2000,g 14.5,4.0
# From MPEC 2022-C56
439P/LINEAR,e,7.1142,56.4075,342.0381,3.488918,0.1512404,0.46959604,68.9370,11/25.0/2022,2000,g 13.5,4.0
# From MPEC 2022-L66
440P/Kobayashi,e,12.3389,328.8786,183.3068,8.582626,0.0391989,0.76044362,9.4108,11/25.0/2022,2000,g 15.5,4.0
# From MPEC 2022-OB6
441P/PANSTARRS,e,2.5746,143.6157,178.7847,4.134584,0.1172348,0.19547537,240.5923,11/25.0/2022,2000,g 13.5,4.0
# From MPEC 2022-WD2
442P/McNaught,e,6.0586,32.0157,310.9576,4.979492,0.0887006,0.53360500,8.6850,11/25.0/2022,2000,g 13.5,4.0
# From MPEC 2022-OB6
443P/PANSTARRS-Christensen,e,19.8868,108.9436,145.1121,4.127608,0.1175321,0.28380327,5.3878,11/25.0/2022,2000,g 13.5,4.0
# From MPEC 2022-UY9
444P/WISE-PANSTARRS,e,22.1242,89.4022,170.9092,3.428349,0.1552660,0.57028493,21.3647,11/25.0/2022,2000,g 17.0,4.0
# From MPEC 2022-WD2
445P/Lemmon-PANSTARRS,e,1.0885,126.5736,213.7147,4.061549,0.1204111,0.41450331,11.9468,11/25.0/2022,2000,g 15.0,4.0
# From MPEC 2022-WD2
446P/McNaught,e,16.6137,336.4079,344.7333,4.573227,0.1007790,0.64714787,18.0788,11/25.0/2022,2000,g 16.5,4.0
# From MPEC 2022-UY9
447P/Sheppard-Tholen,e,7.4333,302.6789,97.6394,5.642710,0.0735313,0.18004109,7.2161,11/25.0/2022,2000,g 12.0,4.0
# From MPEC 2022-WD2
448P/PANSTARRS,e,12.1516,161.7561,218.7298,3.635540,0.1421840,0.41905813,11.2944,11/25.0/2022,2000,g 16.0,4.0
# From MPEC 2022-UE6
449P/Leonard,e,15.4637,242.5357,176.6820,3.600142,0.1442862,0.47955649,105.4960,11/25.0/2022,2000,g 16.0,4.0
# From MPEC 2022-TA6
450P/LONEOS,e,10.5517,124.8578,21.0997,7.971564,0.0437914,0.31021098,293.6656,11/25.0/2022,2000,g  6.5,4.0
# From MPEC 2022-TA7
451P/Christensen,e,26.4827,300.9126,186.6918,6.336882,0.0617861,0.55838568,359.8446,11/25.0/2022,2000,g 13.5,4.0
# From MPEC 2022-VC5
452P/Sheppard-Jewitt,e,6.4229,123.7028,37.0623,7.292421,0.0500491,0.42706188,352.4035,11/25.0/2022,2000,g  9.0,4.0
# From MPC107687
1I/`Oumuamua,h,09/09.4886/2017,122.6778,24.5997,241.6845,1.199252,0.255240,2000,23.0,2.0
# From MPEC 2020-K19
2I/Borisov,h,12/08.5549/2019,44.0527,308.1480,209.1251,3.356636,2.006548,2000,11.0,4.0
